NORAD_CAT_ID,OBJECT_NAME,OBJECT_TYPE,EPOCH,MEAN_MOTION,ECCENTRICITY,INCLINATION,RA_OF_ASC_NODE,ARG_OF_PERICENTER,MEAN_ANOMALY,BSTAR,MEAN_MOTION_DOT,MEAN_MOTION_DDOT,TLE_LINE0,TLE_LINE1,TLE_LINE2,SEMIMAJOR_AXIS,PERIOD,APOGEE,PERIGEE,DECAYED
56449.0,STARLINK-5993,PAYLOAD,2023-12-22 04:13:25,14.98320214,0.0002289,70.0015,23.2127,243.1063,116.9863,-2.4362e-05,-3.83e-06,0.0,0 STARLINK-5993,1 56449U 23064B   23356.17598707 -.00000383  00000-0 -24362-4 0  9993,2 56449  70.0015  23.2127 0002289 243.1063 116.9863 14.98320214 34498,6950.223,96.108,573.679,570.497,0.0
56449.0,STARLINK-5993,PAYLOAD,2023-12-22 12:14:06,14.98313542,0.0002722,69.9996,22.3666,263.2359,96.8491,-0.00013075,-1.652e-05,0.0,0 STARLINK-5993,1 56449U 23064B   23356.50979636 -.00001652  00000-0 -13075-3 0  9992,2 56449  69.9996  22.3666 0002722 263.2359  96.8491 14.98313542 34549,6950.244,96.108,574.001,570.217,0.0
56449.0,STARLINK-5993,PAYLOAD,2023-12-23 04:15:26,14.98325072,0.0002958,69.9986,20.6791,281.0932,78.9894,-6.9639e-05,-9.24e-06,0.0,0 STARLINK-5993,1 56449U 23064B   23357.17739159 -.00000924  00000-0 -69639-4 0  9999,2 56449  69.9986  20.6791 0002958 281.0932  78.9894 14.98325072 34644,6950.208,96.107,574.129,570.017,0.0
56449.0,STARLINK-5993,PAYLOAD,2023-12-23 10:39:58,14.98327735,0.0002309,70.0005,20.0101,257.4032,102.6869,-2.4293e-05,-3.83e-06,0.0,0 STARLINK-5993,1 56449U 23064B   23357.44442881 -.00000383  00000-0 -24293-4 0  9998,2 56449  70.0005  20.0101 0002309 257.4032 102.6869 14.98327735 34326,6950.2,96.107,573.67,570.46,0.0
56449.0,STARLINK-5993,PAYLOAD,2023-12-24 04:17:26,14.98329671,0.0002384,70.0004,18.1586,261.8888,98.2,0.00026906,3.119e-05,0.0,0 STARLINK-5993,1 56449U 23064B   23358.17877767  .00003119  00000-0  26906-3 0  9994,2 56449  70.0004  18.1586 0002384 261.8888  98.2000 14.98329671 34790,6950.194,96.107,573.716,570.402,0.0
56449.0,STARLINK-5993,PAYLOAD,2023-12-24 10:41:55,14.98372978,0.0002496,70.0002,17.4834,271.7786,88.3087,0.00074323,8.796e-05,0.0,0 STARLINK-5993,1 56449U 23064B   23358.44577940  .00008796  00000-0  74323-3 0  9996,2 56449  70.0002  17.4834 0002496 271.7786  88.3087 14.98372978 34835,6950.06,96.104,573.66,570.19,0.0
56449.0,STARLINK-5993,PAYLOAD,2023-12-25 04:19:27,14.98330937,0.0002695,69.9998,15.6327,266.2339,93.8511,-1.6531e-05,-2.9e-06,0.0,0 STARLINK-5993,1 56449U 23064B   23359.18018162 -.00000290  00000-0 -16531-4 0  9995,2 56449  69.9998  15.6327 0002695 266.2339  93.8511 14.98330937 34941,6950.19,96.107,573.928,570.182,0.0
56449.0,STARLINK-5993,PAYLOAD,2023-12-25 10:43:59,14.98334915,0.0002473,70.0,14.9588,272.1835,87.9041,3.709e-05,3.5e-06,0.0,0 STARLINK-5993,1 56449U 23064B   23359.44721755  .00000350  00000-0  37090-4 0  9991,2 56449  70.0000  14.9588 0002473 272.1835  87.9041 14.98334915 34627,6950.178,96.107,573.761,570.324,0.0
56449.0,STARLINK-5993,PAYLOAD,2023-12-26 10:46:00,14.98335649,0.0002718,69.9996,12.4341,266.265,93.8198,-0.00014465,-1.819e-05,0.0,0 STARLINK-5993,1 56449U 23064B   23360.44861778 -.00001819  00000-0 -14465-3 0  9996,2 56449  69.9996  12.4341 0002718 266.2650  93.8198 14.98335649 35130,6950.175,96.107,573.929,570.151,0.0
56449.0,STARLINK-5993,PAYLOAD,2023-12-27 10:48:00,14.98334483,0.0002792,69.9995,9.9078,266.414,93.6699,5.8812e-05,6.09e-06,0.0,0 STARLINK-5993,1 56449U 23064B   23361.45001118  .00000609  00000-0  58812-4 0  9991,2 56449  69.9995   9.9078 0002792 266.4140  93.6699 14.98334483 35280,6950.179,96.107,573.985,570.104,0.0
56449.0,STARLINK-5993,PAYLOAD,2023-12-28 04:25:28,14.98343896,0.0003035,69.9989,8.0564,267.4434,92.6378,0.00016487,1.875e-05,0.0,0 STARLINK-5993,1 56449U 23064B   23362.18435740  .00001875  00000-0  16487-3 0  9991,2 56449  69.9989   8.0564 0003035 267.4434  92.6378 14.98343896 35394,6950.15,96.106,574.124,569.906,0.0
56449.0,STARLINK-5993,PAYLOAD,2023-12-28 10:50:00,14.98344185,0.0002838,69.9996,7.3839,265.6374,94.446,0.0001702,1.939e-05,0.0,0 STARLINK-5993,1 56449U 23064B   23362.45139486  .00001939  00000-0  17020-3 0  9994,2 56449  69.9996   7.3839 0002838 265.6374  94.4460 14.98344185 35071,6950.149,96.106,573.986,570.042,0.0
56449.0,STARLINK-5993,PAYLOAD,2023-12-29 02:51:22,14.98323597,0.0002864,69.9998,5.6994,270.6031,89.48,-0.00012047,-1.53e-05,0.0,0 STARLINK-5993,1 56449U 23064B   23363.11901567 -.00001530  00000-0 -12047-3 0  9998,2 56449  69.9998   5.6994 0002864 270.6031  89.4800 14.98323597 35538,6950.213,96.107,574.068,570.087,0.0
56449.0,STARLINK-5993,PAYLOAD,2023-12-29 09:15:55,14.98317318,0.0002523,70.0004,5.0275,254.8859,105.2021,-0.00016806,-2.097e-05,0.0,0 STARLINK-5993,1 56449U 23064B   23363.38606147 -.00002097  00000-0 -16806-3 0  9999,2 56449  70.0004   5.0275 0002523 254.8859 105.2021 14.98317318 35210,6950.232,96.108,573.851,570.344,0.0
56449.0,STARLINK-5993,PAYLOAD,2023-12-30 04:29:31,14.98334535,0.0002721,70.0001,3.0081,255.7586,104.3271,-9.6894e-05,-1.249e-05,0.0,0 STARLINK-5993,1 56449U 23064B   23364.18716830 -.00001249  00000-0 -96894-4 0  9993,2 56449  70.0001   3.0081 0002721 255.7586 104.3271 14.98334535 35696,6950.179,96.107,573.935,570.153,0.0
56449.0,STARLINK-5993,PAYLOAD,2023-12-30 10:54:03,14.98333016,0.0002813,70.0,2.3344,261.3072,98.7768,-9.3475e-05,-1.208e-05,0.0,0 STARLINK-5993,1 56449U 23064B   23364.45420948 -.00001208  00000-0 -93475-4 0  9992,2 56449  70.0000   2.3344 0002813 261.3072  98.7768 14.98333016 35379,6950.184,96.107,574.004,570.093,0.0
56449.0,STARLINK-5993,PAYLOAD,2023-12-31 02:55:24,14.98318816,0.0002785,69.9999,0.6506,262.4183,97.666,0.00013262,1.489e-05,0.0,0 STARLINK-5993,1 56449U 23064B   23365.12181356  .00001489  00000-0  13262-3 0  9998,2 56449  69.9999   0.6506 0002785 262.4183  97.6660 14.98318816 35838,6950.227,96.108,574.028,570.157,0.0
56449.0,STARLINK-5993,PAYLOAD,2023-12-31 09:19:57,14.98320452,0.0002743,70.0,359.9774,260.4901,99.5948,0.00013516,1.52e-05,0.0,0 STARLINK-5993,1 56449U 23064B   23365.38885425  .00001520  00000-0  13516-3 0  9992,2 56449  70.0000 359.9774 0002743 260.4901  99.5948 14.98320452 35515,6950.222,96.108,573.994,570.181,0.0
56449.0,STARLINK-5993,PAYLOAD,2024-01-01 02:57:25,14.98328915,0.0002915,69.9995,358.1249,265.2175,94.8651,-2.7548e-06,-1.26e-06,0.0,0 STARLINK-5993,1 56449U 23064B   24001.12321457 -.00000126  00000-0 -27548-5 0  9997,2 56449  69.9995 358.1249 0002915 265.2175  94.8651 14.98328915 35982,6950.196,96.107,574.087,570.035,0.0
56449.0,STARLINK-5993,PAYLOAD,2024-01-01 09:21:57,14.98330686,0.0002903,69.9995,357.4516,264.7126,95.3702,3.2176e-05,2.91e-06,0.0,0 STARLINK-5993,1 56449U 23064B   24001.39025239  .00000291  00000-0  32176-4 0  9998,2 56449  69.9995 357.4516 0002903 264.7126  95.3702 14.98330686 35664,6950.191,96.107,574.073,570.038,0.0
56449.0,STARLINK-5993,PAYLOAD,2024-01-02 02:59:26,14.98330978,0.0002864,69.9996,355.5993,265.5363,94.5469,1.4197e-05,7.6e-07,0.0,0 STARLINK-5993,1 56449U 23064B   24002.12461239  .00000076  00000-0  14197-4 0  9998,2 56449  69.9996 355.5993 0002864 265.5363  94.5469 14.98330978 36139,6950.19,96.107,574.045,570.064,0.0
56449.0,STARLINK-5993,PAYLOAD,2024-01-02 09:23:58,14.98332736,0.0002814,69.9998,354.9269,264.7534,95.3304,3.7851e-05,3.59e-06,0.0,0 STARLINK-5993,1 56449U 23064B   24002.39165032  .00000359  00000-0  37851-4 0  9995,2 56449  69.9998 354.9269 0002814 264.7534  95.3304 14.98332736 35811,6950.184,96.107,574.005,570.094,0.0
56449.0,STARLINK-5993,PAYLOAD,2024-01-03 03:01:27,14.9832951,0.0002726,70.0002,353.0755,264.7047,95.3801,-9.3557e-06,-2.05e-06,0.0,0 STARLINK-5993,1 56449U 23064B   24003.12601321 -.00000205  00000-0 -93557-5 0  9991,2 56449  70.0002 353.0755 0002726 264.7047  95.3801 14.98329510 36281,6950.194,96.107,573.954,570.165,0.0
56449.0,STARLINK-5993,PAYLOAD,2024-01-03 09:25:59,14.98336499,0.0002502,70.0003,352.4024,260.0013,100.0864,-0.00018777,-2.333e-05,0.0,0 STARLINK-5993,1 56449U 23064B   24003.39305329 -.00002333  00000-0 -18777-3 0  9992,2 56449  70.0003 352.4024 0002502 260.0013 100.0864 14.98336499 35969,6950.173,96.107,573.777,570.299,0.0
56449.0,STARLINK-5993,PAYLOAD,2024-01-04 03:03:28,14.9833278,0.0002809,70.0,350.551,264.8745,95.2093,-3.21e-06,-1.31e-06,0.0,0 STARLINK-5993,1 56449U 23064B   24004.12741049 -.00000131  00000-0 -32100-5 0  9999,2 56449  70.0000 350.5510 0002809 264.8745  95.2093 14.98332780 36430,6950.184,96.107,574.002,570.097,0.0
56449.0,STARLINK-5993,PAYLOAD,2024-01-04 04:39:35,14.98413378,0.0002661,70.0,350.3829,251.0482,109.0389,-0.0013544,-0.00016251,0.0,0 STARLINK-5993,1 56449U 23064B   24004.19415777 -.00016251  00000-0 -13544-2 0  9990,2 56449  70.0000 350.3829 0002661 251.0482 109.0389 14.98413378 36449,6949.935,96.102,573.649,569.951,0.0
56449.0,STARLINK-5993,PAYLOAD,2024-01-04 22:17:04,14.98326844,0.0002603,70.0004,348.5314,254.3837,105.7035,7.8203e-05,8.4e-06,0.0,0 STARLINK-5993,1 56449U 23064B   24004.92852983  .00000840  00000-0  78203-4 0  9995,2 56449  70.0004 348.5314 0002603 254.3837 105.7035 14.98326844 36191,6950.203,96.107,573.877,570.259,0.0
56449.0,STARLINK-5993,PAYLOAD,2024-01-05 04:41:37,14.98328471,0.0002802,70.0,347.8576,266.9422,93.1416,1.2497e-05,5.6e-07,0.0,0 STARLINK-5993,1 56449U 23064B   24005.19557180  .00000056  00000-0  12497-4 0  9998,2 56449  70.0000 347.8576 0002802 266.9422  93.1416 14.98328471 36594,6950.198,96.107,574.01,570.115,0.0
56449.0,STARLINK-5993,PAYLOAD,2024-01-05 09:30:01,14.98325004,0.0002685,70.0002,347.3525,263.9818,96.1035,5.8628e-05,6.07e-06,0.0,0 STARLINK-5993,1 56449U 23064B   24005.39585295  .00000607  00000-0  58628-4 0  9996,2 56449  70.0002 347.3525 0002685 263.9818  96.1035 14.98325004 36263,6950.208,96.107,573.939,570.207,0.0
56449.0,STARLINK-5993,PAYLOAD,2024-01-06 04:43:38,14.98330033,0.0002788,70.0001,345.3327,265.2564,94.8276,-7.6755e-06,-1.85e-06,0.0,0 STARLINK-5993,1 56449U 23064B   24006.19697086 -.00000185  00000-0 -76755-5 0  9992,2 56449  70.0001 345.3327 0002788 265.2564  94.8276 14.98330033 36740,6950.193,96.107,573.996,570.12,0.0
